OBJECT_NAME,OBJECT_ID,EPOCH,MEAN_MOTION,ECCENTRICITY,INCLINATION,RA_OF_ASC_NODE,ARG_OF_PERICENTER,MEAN_ANOMALY,EPHEMERIS_TYPE,CLASSIFICATION_TYPE,NORAD_CAT_ID,ELEMENT_SET_NO,REV_AT_EPOCH,BSTAR,MEAN_MOTION_DOT,MEAN_MOTION_DDOT
LEMUR-2-ROUNDTRIPPER,2025-009DG,2026-07-13T04:10:20.703072,15.04211676,.0004412,97.7252,276.8201,68.0199,292.1495,0,U,62711,999,8153,.38803E-3,.5331E-4,0
LEMUR-2-MYNAMEISJEFF,2025-009DH,2026-07-13T04:08:08.922336,15.04203117,.000391,97.7301,277.2155,101.5856,258.5808,0,U,62712,999,8153,.37505E-3,.5149E-4,0
LEMUR-2-LEIA-PHILIP,2025-052AN,2026-07-12T15:56:21.589728,14.97389132,.0005092,97.6812,85.1833,125.0201,235.1500,0,U,63246,999,7248,.56355E-4,.597E-5,0
LEMUR-2-LIA-MARTIN,2025-052AQ,2026-07-13T03:03:21.983328,14.98021131,.0005402,97.6876,86.1537,95.0747,265.1092,0,U,63248,999,7256,.25087E-3,.2906E-4,0
LEMUR-2-DELOITTE-1,2025-052BB,2026-07-12T16:57:30.589920,14.97770317,.0002451,97.6883,86.0697,67.7345,292.4137,0,U,63259,999,7251,.19038E-3,.2176E-4,0
LEMUR-2-EMERSONROSE,2025-052BD,2026-07-13T02:58:10.201152,14.99279904,.0002783,97.6887,87.0891,64.4353,295.7157,0,U,63261,999,7262,.2542E-3,.3044E-4,0
LEMUR-2-MARACHE-FRAN,2025-052BE,2026-07-12T16:20:37.711392,15.00306023,.0004895,97.6849,87.0169,264.0208,96.0458,0,U,63262,999,7258,.15634E-3,.19E-4,0
LEMUR-2-THEFALCONER,2025-052BG,2026-07-12T16:04:38.095104,14.97557464,.0000412,97.6844,85.6273,354.5924,5.5293,0,U,63264,999,7250,.11487E-3,.1283E-4,0
LEMUR-2-UNTITLED-SC,2025-061A,2026-07-12T20:55:53.594112,15.13638131,.0018997,97.5648,169.0511,170.8759,189.2821,0,U,63351,999,7147,.13321E-3,.2336E-4,0
LEMUR-2-ESPERANZA,2025-061B,2026-07-12T21:55:47.860032,15.13744545,.0018606,97.5655,169.1920,169.9486,190.2121,0,U,63352,999,7148,.96312E-4,.1675E-4,0
LEMUR-2-KREMPEL-BRO2,2025-061C,2026-07-12T22:24:02.531232,15.14170656,.001974,97.5701,169.7776,162.8616,197.3287,0,U,63353,999,7150,.12399E-3,.2204E-4,0
LEMUR-2-THERMORAPTOR,2025-061D,2026-07-12T21:56:13.316064,15.14253556,.0019519,97.5707,169.8390,161.7454,198.4482,0,U,63354,999,7150,.106E-3,.1879E-4,0
LEMUR-2-NEUROSPICY,2025-061E,2026-07-12T21:12:34.843104,15.14371468,.0017235,97.5633,169.4153,164.6418,195.5340,0,U,63355,999,7150,.13578E-3,.2431E-4,0
LEMUR-2-TILLINFINITY,2025-061F,2026-07-12T21:49:06.026592,15.14955613,.0018831,97.5621,169.7489,153.3812,206.8391,0,U,63356,999,7153,.1096E-3,.1984E-4,0
LEMUR-2-KREMPEL-BRO1,2025-061G,2026-07-12T21:15:38.090592,15.14762625,.001942,97.5621,169.6347,154.8111,205.4072,0,U,63357,999,7152,.13262E-3,.2402E-4,0
LEMUR-2-LANGER2SPACE,2025-061H,2026-07-12T23:36:22.112928,15.14456890,.0017197,97.5626,169.5355,162.6831,197.4991,0,U,63358,999,7152,.10344E-3,.1841E-4,0
LEMUR-2-BALTO,2025-052BH,2026-07-12T15:58:13.552896,15.00350179,.0005235,97.6934,86.9871,338.2510,21.8491,0,U,63395,999,7258,.23213E-3,.2854E-4,0
LEMUR-2-KRISH,2025-135AK,2026-07-12T19:40:53.081184,14.96440074,.000155,97.7772,308.5248,96.3238,263.8160,0,U,64561,999,5775,.22845E-3,.2533E-4,0
LEMUR-2-HUBBLE-4,2025-135AP,2026-07-12T22:19:56.553888,14.93681749,.0002496,97.7717,307.5376,168.2577,191.8701,0,U,64565,999,5771,.112E-3,.1127E-4,0
LEMUR-2-SEJONG-2,2025-135BL,2026-07-13T04:13:31.228896,14.96902663,.0003819,97.7705,309.0245,228.4957,131.5937,0,U,64586,999,5783,.18834E-3,.2103E-4,0
LEMUR-2-HUBBLE-5,2025-135BT,2026-07-12T20:57:23.164128,14.94209838,.0004201,97.7738,308.1474,244.9347,115.1437,0,U,64840,999,5774,.10687E-3,.1088E-4,0
LEMUR-2-KARENDARRELL,2025-135BU,2026-07-12T20:41:54.141216,15.00480553,.0012201,97.7709,310.0353,111.5387,248.7138,0,U,64841,999,5786,.38697E-3,.482E-4,0
LEMUR-2-LUCILLE-ROSE,2025-135BV,2026-07-12T20:03:38.899296,15.00473532,.0014652,97.7710,310.0446,196.2246,163.8510,0,U,65403,999,5248,.33731E-3,.4195E-4,0
LEMUR-2-AFFIE-WAUWIE,2025-248C,2026-07-12T10:16:00.043392,15.28172277,.00087247,45.3911,338.1335,238.0839,121.9202,0,U,66295,999,3845,.45877995E-3,.12562E-3,0
OTTER SDM,2025-276N,2026-07-13T02:56:20.714208,15.20043086,.0004236,97.4209,267.1711,263.9078,96.1675,0,U,66678,999,3435,.18062E-3,.3827E-4,0
LEMUR-2-STAS-GORBUK,2025-276W,2026-07-12T17:57:30.731040,15.19644338,.0003456,97.4243,266.8551,260.6907,99.3937,0,U,66686,999,3429,.1804E-3,.3778E-4,0
LEMUR-2-TEODOR,2025-276DG,2026-07-12T18:28:26.063040,15.21322077,.0002281,97.4147,267.1448,89.7179,270.4318,0,U,66768,999,3433,.16439E-3,.361E-4,0
LEMUR-2-LAILA,2025-276DQ,2026-07-13T03:13:40.341216,15.21550887,.0002911,97.4170,267.6416,97.3279,262.8287,0,U,66776,999,3439,.16683E-3,.369E-4,0
LEMUR-2-CELIJO-SB-PK,2025-276DW,2026-07-12T23:36:49.779072,15.00273190,.0007063,97.5201,263.9101,69.7393,290.4590,0,U,66781,999,2649,.28425E-3,.3504E-4,0
LEMUR-2-FINNIAN,2025-276DX,2026-07-12T18:06:41.046336,15.00601115,.0007886,97.5339,263.9508,9.8225,350.3152,0,U,66782,999,2383,.14177E-3,.1734E-4,0
